HIERARCHY
ROOT Hips
{
    OFFSET 0 0 0
    CHANNELS 6 Xposition Yposition Zposition Zrotation Yrotation Xrotation

    JOINT Spine
    {
        OFFSET 0 10 0
        CHANNELS 3 Zrotation Yrotation Xrotation

        JOINT Neck
        {
            OFFSET 0 10 0
            CHANNELS 3 Zrotation Yrotation Xrotation

            JOINT Head
            {
                OFFSET 0 5 0
                CHANNELS 3 Zrotation Yrotation Xrotation
                End Site { OFFSET 0 5 0 }
            }
        }

        JOINT LeftArm
        {
            OFFSET -5 10 0
            CHANNELS 3 Zrotation Yrotation Xrotation
            End Site { OFFSET -10 0 0 }
        }

        JOINT RightArm
        {
            OFFSET 5 10 0
            CHANNELS 3 Zrotation Yrotation Xrotation
            End Site { OFFSET 10 0 0 }
        }
    }

    JOINT LeftLeg
    {
        OFFSET -3 -10 0
        CHANNELS 3 Zrotation Yrotation Xrotation
        End Site { OFFSET 0 -15 0 }
    }

    JOINT RightLeg
    {
        OFFSET 3 -10 0
        CHANNELS 3 Zrotation Yrotation Xrotation
        End Site { OFFSET 0 -15 0 }
    }
}

MOTION
Frames: 60
Frame Time: 0.033333
0 0 0 0 0 0 0 0 0 0 0 0 0 0 0 0 0 0 0 0 0 0 0 0 0 0 0 0 0 0
0 0 0.5 2 0 0 5 0 -5 -5 0 5 5 0 5 0 -5 0 0 0 -5 0 5 0 5 0 -5 0 0 0
0 0 1 4 0 0 10 0 -10 -10 0 10 10 0 10 0 -10 0 0 0 -10 0 10 0 10 0 -10 0 0 0
0 0 1.5 6 0 0 15 0 -15 -15 0 15 15 0 15 0 -15 0 0 0 -15 0 15 0 15 0 -15 0 0 0
0 0 2 8 0 0 20 0 -20 -20 0 20 20 0 20 0 -20 0 0 0 -20 0 20 0 20 0 -20 0 0 0
0 0 2.5 10 0 0 15 0 -15 -15 0 15 15 0 15 0 -15 0 0 0 -15 0 15 0 15 0 -15 0 0 0
0 0 3 12 0 0 10 0 -10 -10 0 10 10 0 10 0 -10 0 0 0 -10 0 10 0 10 0 -10 0 0 0
0 0 3.5 14 0 0 5 0 -5 -5 0 5 5 0 5 0 -5 0 0 0 -5 0 5 0 5 0 -5 0 0 0
0 0 4 16 0 0 0 0 0 0 0 0 0 0 0 0 0 0 0 0 0 0 0 0 0 0 0 0 0 0
0 0 4.5 14 0 0 -5 0 5 5 0 -5 -5 0 -5 0 5 0 0 0 5 0 -5 0 -5 0 5 0 0 0
0 0 5 12 0 0 -10 0 10 10 0 -10 -10 0 -10 0 10 0 0 0 10 0 -10 0 -10 0 10 0 0 0
0 0 5.5 10 0 0 -15 0 15 15 0 -15 -15 0 -15 0 15 0 0 0 15 0 -15 0 -15 0 15 0 0 0
0 0 6 8 0 0 -20 0 20 20 0 -20 -20 0 -20 0 20 0 0 0 20 0 -20 0 -20 0 20 0 0 0
0 0 6.5 6 0 0 -15 0 15 15 0 -15 -15 0 -15 0 15 0 0 0 15 0 -15 0 -15 0 15 0 0 0
0 0 7 4 0 0 -10 0 10 10 0 -10 -10 0 -10 0 10 0 0 0 10 0 -10 0 -10 0 10 0 0 0
0 0 7.5 2 0 0 -5 0 5 5 0 -5 -5 0 -5 0 5 0 0 0 5 0 -5 0 -5 0 5 0 0 0
0 0 8 0 0 0 0 0 0 0 0 0 0 0 0 0 0 0 0 0 0 0 0 0 0 0 0 0 0 0
0 0 8.5 -0.5 0 0 5 0 -5 -5 0 5 5 0 5 0 -5 0 0 0 -5 0 5 0 5 0 -5 0 0 0
0 0 9 -1 0 0 10 0 -10 -10 0 10 10 0 10 0 -10 0 0 0 -10 0 10 0 10 0 -10 0 0 0
0 0 9.5 -1.5 0 0 15 0 -15 -15 0 15 15 0 15 0 -15 0 0 0 -15 0 15 0 15 0 -15 0 0 0
0 0 10 -2 0 0 20 0 -20 -20 0 20 20 0 20 0 -20 0 0 0 -20 0 20 0 20 0 -20 0 0 0
0 0 10.5 -2.5 0 0 15 0 -15 -15 0 15 15 0 15 0 -15 0 0 0 -15 0 15 0 15 0 -15 0 0 0
0 0 11 -3 0 0 10 0 -10 -10 0 10 10 0 10 0 -10 0 0 0 -10 0 10 0 10 0 -10 0 0 0
0 0 11.5 -3.5 0 0 5 0 -5 -5 0 5 5 0 5 0 -5 0 0 0 -5 0 5 0 5 0 -5 0 0 0
0 0 12 -4 0 0 0 0 0 0 0 0 0 0 0 0 0 0 0 0 0 0 0 0 0 0 0 0 0 0
0 0 12.5 -3.5 0 0 -5 0 5 5 0 -5 -5 0 -5 0 5 0 0 0 5 0 -5 0 -5 0 5 0 0 0
0 0 13 -3 0 0 -10 0 10 10 0 -10 -10 0 -10 0 10 0 0 0 10 0 -10 0 -10 0 10 0 0 0
0 0 13.5 -2.5 0 0 -15 0 15 15 0 -15 -15 0 -15 0 15 0 0 0 15 0 -15 0 -15 0 15 0 0 0
0 0 14 -2 0 0 -20 0 20 20 0 -20 -20 0 -20 0 20 0 0 0 20 0 -20 0 -20 0 20 0 0 0
0 0 14.5 -1.5 0 0 -15 0 15 15 0 -15 -15 0 -15 0 15 0 0 0 15 0 -15 0 -15 0 15 0 0 0
0 0 15 -1 0 0 -10 0 10 10 0 -10 -10 0 -10 0 10 0 0 0 10 0 -10 0 -10 0 10 0 0 0
0 0 15.5 -0.5 0 0 -5 0 5 5 0 -5 -5 0 -5 0 5 0 0 0 -5 0 5 0 5 0 -5 0 0 0
0 0 16 0 0 0 0 0 0 0 0 0 0 0 0 0 0 0 0 0 0 0 0 0 0 0 0 0 0 0
0 0 16.5 0.5 0 0 5 0 -5 -5 0 5 5 0 5 0 -5 0 0 0 -5 0 5 0 5 0 -5 0 0 0
0 0 17 1 0 0 10 0 -10 -10 0 10 10 0 10 0 -10 0 0 0 -10 0 10 0 10 0 -10 0 0 0
0 0 17.5 1.5 0 0 15 0 -15 -15 0 15 15 0 15 0 -15 0 0 0 -15 0 15 0 15 0 -15 0 0 0
0 0 18 2 0 0 20 0 -20 -20 0 20 20 0 20 0 -20 0 0 0 -20 0 20 0 20 0 -20 0 0 0
0 0 18.5 2.5 0 0 15 0 -15 -15 0 15 15 0 15 0 -15 0 0 0 -15 0 15 0 15 0 -15 0 0 0
0 0 19 3 0 0 10 0 -10 -10 0 10 10 0 10 0 -10 0 0 0 -10 0 10 0 10 0 -10 0 0 0
0 0 19.5 3.5 0 0 5 0 -5 -5 0 5 5 0 5 0 -5 0 0 0 -5 0 5 0 5 0 -5 0 0 0
0 0 20 4 0 0 0 0 0 0 0 0 0 0 0 0 0 0 0 0 0 0 0 0 0 0 0 0 0 0
